start=new Date('2023-02-13T00:00:00.000Z').valueOf();
sats=[{"OBJECT_ID":"2022-001V","RCS_SIZE":"LARGE","SITE":"AFETR","MEAN_ANOMALY":"126.3493","MEAN_ELEMENT_THEORY":"SGP4","RA_OF_ASC_NODE":"161.1572","ECCENTRICITY":"0.00016490","SEMIMAJOR_AXIS":"6917.767","APOAPSIS":"540.773","TLE_LINE2":"2 50822  53.2144 161.1572 0001649 233.7347 126.3493 15.08877102 62432","FILE":"3787774","COUNTRY_CODE":"US","OBJECT_NAME":"STARLINK-3343","CLASSIFICATION_TYPE":"U","ARG_OF_PERICENTER":"233.7347","EPHEMERIS_TYPE":"0","MEAN_MOTION":"15.08877102","PERIAPSIS":"538.491","TIME_SYSTEM":"UTC","GP_ID":"225268143","INCLINATION":"53.2144","MEAN_MOTION_DDOT":"0.0000000000000","EPOCH":"2023-02-12T18:17:56.590656","TLE_LINE1":"1 50822U 22001V   23043.76246054  .00049137  00000-0  30809-2 0  9994","OBJECT_TYPE":"PAYLOAD","DECAY_DATE":null,"REF_FRAME":"TEME","NORAD_CAT_ID":"50822","MEAN_MOTION_DOT":"0.00049137","LAUNCH_DATE":"2022-01-06","CENTER_NAME":"EARTH","ELEMENT_SET_NO":"999","BSTAR":"0.00308090000000","REV_AT_EPOCH":"6243","PERIOD":"95.435"},{"REV_AT_EPOCH":"6245","BSTAR":"0.00000656320000","PERIOD":"95.437","ELEMENT_SET_NO":"999","NORAD_CAT_ID":"50823","MEAN_MOTION_DOT":"-0.00000183","LAUNCH_DATE":"2022-01-06","CENTER_NAME":"EARTH","DECAY_DATE":null,"REF_FRAME":"TEME","OBJECT_TYPE":"PAYLOAD","TLE_LINE1":"1 50823U 22001W   23043.66311143 -.00000183  00000-0  65632-5 0  9990","MEAN_MOTION_DDOT":"0.0000000000000","EPOCH":"2023-02-12T15:54:52.827552","TIME_SYSTEM":"UTC","GP_ID":"225274293","INCLINATION":"53.2144","ARG_OF_PERICENTER":"96.2156","EPHEMERIS_TYPE":"0","CLASSIFICATION_TYPE":"U","PERIAPSIS":"538.741","MEAN_MOTION":"15.08845759","TLE_LINE2":"2 50823  53.2144 161.6091 0001427  96.2156 263.8999 15.08845759 62451","APOAPSIS":"540.715","COUNTRY_CODE":"US","OBJECT_NAME":"STARLINK-3334","FILE":"3788081","SEMIMAJOR_AXIS":"6917.863","RA_OF_ASC_NODE":"161.6091","ECCENTRICITY":"0.00014270","MEAN_ELEMENT_THEORY":"SGP4","SITE":"AFETR","MEAN_ANOMALY":"263.8999","RCS_SIZE":"LARGE","OBJECT_ID":"2022-001W"},{"PERIAPSIS":"539.063","MEAN_MOTION":"15.08852147","EPHEMERIS_TYPE":"0","ARG_OF_PERICENTER":"84.5802","CLASSIFICATION_TYPE":"U","INCLINATION":"53.2136","GP_ID":"225236332","TIME_SYSTEM":"UTC","EPOCH":"2023-02-12T15:01:53.006016","MEAN_MOTION_DDOT":"0.0000000000000","TLE_LINE1":"1 50824U 22001X   23043.62630794  .00003718  00000-0  25148-3 0  9995","DECAY_DATE":null,"REF_FRAME":"TEME","OBJECT_TYPE":"PAYLOAD","LAUNCH_DATE":"2022-01-06","CENTER_NAME":"EARTH","NORAD_CAT_ID":"50824","MEAN_MOTION_DOT":"0.00003718","ELEMENT_SET_NO":"999","PERIOD":"95.437","REV_AT_EPOCH":"6116","BSTAR":"0.00025148000000","OBJECT_ID":"2022-001X","RCS_SIZE":"LARGE","MEAN_ANOMALY":"275.5296","SITE":"AFETR","MEAN_ELEMENT_THEORY":"SGP4","ECCENTRICITY":"0.00009330","RA_OF_ASC_NODE":"161.7756","SEMIMAJOR_AXIS":"6917.843","COUNTRY_CODE":"US","OBJECT_NAME":"STARLINK-3340","FILE":"3787692","TLE_LINE2":"2 50824  53.2136 161.7756 0000933  84.5802 275.5296 15.08852147 61167","APOAPSIS":"540.354"},{"REF_FRAME":"TEME","DECAY_DATE":null,"OBJECT_TYPE":"PAYLOAD","LAUNCH_DATE":"2022-01-06","CENTER_NAME":"EARTH","NORAD_CAT_ID":"50825","MEAN_MOTION_DOT":"0.00003137","ELEMENT_SET_NO":"999","PERIOD":"95.438","REV_AT_EPOCH":"6247","BSTAR":"0.00021510000000","PERIAPSIS":"539.189","MEAN_MOTION":"15.08834499","ARG_OF_PERICENTER":"97.8388","EPHEMERIS_TYPE":"0","CLASSIFICATION_TYPE":"U","INCLINATION":"53.2138","GP_ID":"225274580","TIME_SYSTEM":"UTC","EPOCH":"2023-02-12T21:34:01.981920","MEAN_MOTION_DDOT":"0.0000000000000","TLE_LINE1":"1 50825U 22001Y   23043.89863405  .00003137  00000-0  21510-3 0  9996","ECCENTRICITY":"0.00008280","RA_OF_ASC_NODE":"160.5482","SEMIMAJOR_AXIS":"6917.897","COUNTRY_CODE":"US","OBJECT_NAME":"STARLINK-3332","FILE":"3788082","TLE_LINE2":"2 50825  53.2138 160.5482 0000828  97.8388 262.2699 15.08834499 62477","APOAPSIS":"540.335","OBJECT_ID":"2022-001Y","RCS_SIZE":"LARGE","MEAN_ANOMALY":"262.2699","SITE":"AFETR","MEAN_ELEMENT_THEORY":"SGP4"},{"MEAN_ELEMENT_THEORY":"SGP4","SITE":"AFETR","MEAN_ANOMALY":"273.4512","RCS_SIZE":"LARGE","OBJECT_ID":"2022-001Z","FILE":"3788082","COUNTRY_CODE":"US","OBJECT_NAME":"STARLINK-3337","APOAPSIS":"540.604","TLE_LINE2":"2 50826  53.2158 161.2410 0001279  86.6627 273.4512 15.08848720 62461","SEMIMAJOR_AXIS":"6917.854","ECCENTRICITY":"0.00012790","RA_OF_ASC_NODE":"161.2410","TLE_LINE1":"1 50826U 22001Z   23043.74407120  .00002879  00000-0  19883-3 0  9991","EPOCH":"2023-02-12T17:51:27.751680","MEAN_MOTION_DDOT":"0.0000000000000","INCLINATION":"53.2158","TIME_SYSTEM":"UTC","GP_ID":"225274587","MEAN_MOTION":"15.08848720","PERIAPSIS":"538.834","CLASSIFICATION_TYPE":"U","EPHEMERIS_TYPE":"0","ARG_OF_PERICENTER":"86.6627","PERIOD":"95.437","BSTAR":"0.00019883000000","REV_AT_EPOCH":"6246","ELEMENT_SET_NO":"999","LAUNCH_DATE":"2022-01-06","CENTER_NAME":"EARTH","NORAD_CAT_ID":"50826","MEAN_MOTION_DOT":"0.00002879","OBJECT_TYPE":"PAYLOAD","DECAY_DATE":null,"REF_FRAME":"TEME"},{"INCLINATION":"53.2151","TIME_SYSTEM":"UTC","GP_ID":"225235585","PERIAPSIS":"538.932","MEAN_MOTION":"15.08831746","EPHEMERIS_TYPE":"0","ARG_OF_PERICENTER":"94.0627","CLASSIFICATION_TYPE":"U","TLE_LINE1":"1 50827U 22001AA  23043.57848239  .00001946  00000-0  14033-3 0  9999","EPOCH":"2023-02-12T13:53:00.878496","MEAN_MOTION_DDOT":"0.0000000000000","LAUNCH_DATE":"2022-01-06","CENTER_NAME":"EARTH","MEAN_MOTION_DOT":"0.00001946","NORAD_CAT_ID":"50827","REF_FRAME":"TEME","DECAY_DATE":null,"OBJECT_TYPE":"PAYLOAD","PERIOD":"95.438","REV_AT_EPOCH":"6115","BSTAR":"0.00014033000000","ELEMENT_SET_NO":"999","RCS_SIZE":"LARGE","OBJECT_ID":"2022-001AA","MEAN_ELEMENT_THEORY":"SGP4","MEAN_ANOMALY":"266.0504","SITE":"AFETR","ECCENTRICITY":"0.00012120","RA_OF_ASC_NODE":"161.9856","COUNTRY_CODE":"US","OBJECT_NAME":"STARLINK-3329","FILE":"3787692","TLE_LINE2":"2 50827  53.2151 161.9856 0001212  94.0627 266.0504 15.08831746 61150","APOAPSIS":"540.609","SEMIMAJOR_AXIS":"6917.906"},{"RCS_SIZE":"LARGE","OBJECT_ID":"2022-001AB","MEAN_ELEMENT_THEORY":"SGP4","MEAN_ANOMALY":"292.4288","SITE":"AFETR","RA_OF_ASC_NODE":"161.4051","ECCENTRICITY":"0.00012660","APOAPSIS":"540.584","TLE_LINE2":"2 50828  53.2166 161.4051 0001266  67.6838 292.4288 15.08852255 62452","FILE":"3788085","COUNTRY_CODE":"US","OBJECT_NAME":"STARLINK-3290","SEMIMAJOR_AXIS":"6917.843","TIME_SYSTEM":"UTC","GP_ID":"225274858","INCLINATION":"53.2166","CLASSIFICATION_TYPE":"U","EPHEMERIS_TYPE":"0","ARG_OF_PERICENTER":"67.6838","MEAN_MOTION":"15.08852255","PERIAPSIS":"538.832","TLE_LINE1":"1 50828U 22001AB  23043.70822484  .00001695  00000-0  12452-3 0  9993","MEAN_MOTION_DDOT":"0.0000000000000","EPOCH":"2023-02-12T16:59:50.626176","MEAN_MOTION_DOT":"0.00001695","NORAD_CAT_ID":"50828","LAUNCH_DATE":"2022-01-06","CENTER_NAME":"EARTH","OBJECT_TYPE":"PAYLOAD","DECAY_DATE":null,"REF_FRAME":"TEME","BSTAR":"0.00012452000000","REV_AT_EPOCH":"6245","PERIOD":"95.437","ELEMENT_SET_NO":"999"},{"TLE_LINE1":"1 50829U 22001AC  23043.78454933  .00007935  00000-0  51575-3 0  9994","MEAN_MOTION_DDOT":"0.0000000000000","EPOCH":"2023-02-12T18:49:45.062112","GP_ID":"225274847","TIME_SYSTEM":"UTC","INCLINATION":"53.2127","CLASSIFICATION_TYPE":"U","ARG_OF_PERICENTER":"69.8938","EPHEMERIS_TYPE":"0","MEAN_MOTION":"15.08861652","PERIAPSIS":"538.902","BSTAR":"0.00051575000000","REV_AT_EPOCH":"6245","PERIOD":"95.436","ELEMENT_SET_NO":"999","MEAN_MOTION_DOT":"0.00007935","NORAD_CAT_ID":"50829","LAUNCH_DATE":"2022-01-06","CENTER_NAME":"EARTH","OBJECT_TYPE":"PAYLOAD","DECAY_DATE":null,"REF_FRAME":"TEME","MEAN_ELEMENT_THEORY":"SGP4","SITE":"AFETR","MEAN_ANOMALY":"290.2175","RCS_SIZE":"LARGE","OBJECT_ID":"2022-001AC","APOAPSIS":"540.457","TLE_LINE2":"2 50829  53.2127 161.0644 0001124  69.8938 290.2175 15.08861652 62454","FILE":"3788085","COUNTRY_CODE":"US","OBJECT_NAME":"STARLINK-3294","SEMIMAJOR_AXIS":"6917.814","RA_OF_ASC_NODE":"161.0644","ECCENTRICITY":"0.00011240"},{"MEAN_ELEMENT_THEORY":"SGP4","SITE":"AFETR","MEAN_ANOMALY":"278.3483","RCS_SIZE":"LARGE","OBJECT_ID":"2022-001AD","COUNTRY_CODE":"US","OBJECT_NAME":"STARLINK-3278","FILE":"3788085","TLE_LINE2":"2 50830  53.2147 171.2774 0001022  81.7625 278.3483 15.08871157 62313","APOAPSIS":"540.357","SEMIMAJOR_AXIS":"6917.785","ECCENTRICITY":"0.00010220","RA_OF_ASC_NODE":"171.2774","TLE_LINE1":"1 50830U 22001AD  23043.73579511  .00047015  00000-0  29500-2 0  9996","EPOCH":"2023-02-12T17:39:32.697504","MEAN_MOTION_DDOT":"0.0000000000000","INCLINATION":"53.2147","GP_ID":"225274852","TIME_SYSTEM":"UTC","PERIAPSIS":"538.943","MEAN_MOTION":"15.08871157","EPHEMERIS_TYPE":"0","ARG_OF_PERICENTER":"81.7625","CLASSIFICATION_TYPE":"U","PERIOD":"95.436","REV_AT_EPOCH":"6231","BSTAR":"0.00295000000000","ELEMENT_SET_NO":"999","LAUNCH_DATE":"2022-01-06","CENTER_NAME":"EARTH","MEAN_MOTION_DOT":"0.00047015","NORAD_CAT_ID":"50830","REF_FRAME":"TEME","DECAY_DATE":null,"OBJECT_TYPE":"PAYLOAD"},{"SEMIMAJOR_AXIS":"6917.840","OBJECT_NAME":"STARLINK-3299","COUNTRY_CODE":"US","FILE":"3787692","TLE_LINE2":"2 50831  53.2149 161.8868 0001188  86.8675 273.2453 15.08853081 61168","APOAPSIS":"540.527","ECCENTRICITY":"0.00011880","RA_OF_ASC_NODE":"161.8868","SITE":"AFETR","MEAN_ANOMALY":"273.2453","MEAN_ELEMENT_THEORY":"SGP4","OBJECT_ID":"2022-001AE","RCS_SIZE":"LARGE","ELEMENT_SET_NO":"999","PERIOD":"95.437","REV_AT_EPOCH":"6116","BSTAR":"0.00171450000000","DECAY_DATE":null,"REF_FRAME":"TEME","OBJECT_TYPE":"PAYLOAD","CENTER_NAME":"EARTH","LAUNCH_DATE":"2022-01-06","MEAN_MOTION_DOT":"0.00027113","NORAD_CAT_ID":"50831","EPOCH":"2023-02-12T14:46:00.479712","MEAN_MOTION_DDOT":"0.0000000000000","TLE_LINE1":"1 50831U 22001AE  23043.61528333  .00027113  00000-0  17145-2 0  9999","PERIAPSIS":"538.884","MEAN_MOTION":"15.08853081","ARG_OF_PERICENTER":"86.8675","EPHEMERIS_TYPE":"0","CLASSIFICATION_TYPE":"U","INCLINATION":"53.2149","GP_ID":"225236085","TIME_SYSTEM":"UTC"}];
